{
	"signature": {
		"source": "NASA/JPL Small-Body Database (SBDB) API",
		"version": "1.3"
	},
	"orbit": {
		"condition_code": "5",
		"source": "JPL",
		"t_jup": "4.531",
		"not_valid_before": null,
		"not_valid_after": null,
		"first_obs": "2018-03-07",
		"two_body": null,
		"model_pars": [],
		"comment": null,
		"soln_date": "2021-04-15 20:24:11",
		"data_arc": "187",
		"orbit_id": "11",
		"n_dop_obs_used": null,
		"epoch": "2460800.5",
		"cov_epoch": "2458194.5",
		"pe_used": "DE441",
		"moid": "0.0149",
		"elements": [
			{
				"units": null,
				"value": "0.36",
				"label": "e",
				"title": "eccentricity",
				"name": "e",
				"sigma": "2.3e-05"
			},
			{
				"title": "semi-major axis",
				"units": "au",
				"value": "1.47",
				"label": "a",
				"sigma": "5.1e-05",
				"name": "a"
			},
			{
				"title": "perihelion distance",
				"value": "0.94",
				"units": "au",
				"label": "q",
				"sigma": "7.6e-07",
				"name": "q"
			},
			{
				"sigma": "0.00031",
				"name": "i",
				"title": "inclination; angle with respect to x-y ecliptic plane",
				"label": "i",
				"units": "deg",
				"value": "4.78"
			},
			{
				"title": "longitude of the ascending node",
				"units": "deg",
				"value": "123",
				"label": "node",
				"sigma": "0.001",
				"name": "om"
			},
			{
				"title": "argument of perihelion",
				"units": "deg",
				"value": "125",
				"label": "peri",
				"sigma": "0.001",
				"name": "w"
			},
			{
				"title": "mean anomaly",
				"value": "326",
				"units": "deg",
				"label": "M",
				"sigma": "0.069",
				"name": "ma"
			},
			{
				"title": "time of perihelion passage",
				"label": "tp",
				"units": "TDB",
				"value": "2460861.332",
				"sigma": "0.13",
				"name": "tp"
			},
			{
				"sigma": "0.034",
				"name": "per",
				"title": "sidereal orbital period",
				"label": "period",
				"value": "650",
				"units": "d"
			},
			{
				"sigma": "2.9e-05",
				"name": "n",
				"title": "mean motion",
				"units": "deg/d",
				"value": "0.554",
				"label": "n"
			},
			{
				"sigma": "6.9e-05",
				"name": "ad",
				"title": "aphelion distance",
				"units": "au",
				"value": "2",
				"label": "Q"
			}
		],
		"n_del_obs_used": null,
		"rms": "0.42",
		"producer": "Otto Matic",
		"sb_used": "SB441-N16",
		"moid_jup": "3.04",
		"equinox": "J2000",
		"last_obs": "2018-09-10",
		"n_obs_used": 42
	},
	"object": {
		"des": "2018 EY3",
		"spkid": "3799878",
		"orbit_id": "11",
		"kind": "au",
		"prefix": null,
		"fullname": "(2018 EY3)",
		"pha": false,
		"orbit_class": {
			"code": "APO",
			"name": "Apollo"
		},
		"neo": true
	}
}